{
  "norad_id": 52895,
  "name": "KSLV-II DUMMY",
  "history": [
    {
      "epoch": "2026-03-28T22:02:06.767232Z",
      "apogee_km": 702.4328111918421,
      "perigee_km": 692.4570897115382,
      "latitude_deg": 2.862756640692051e-05,
      "longitude_deg": 71.69930910666106,
      "height_km": 698.8006662040345,
      "semi_major_axis_km": 7075.581950451689,
      "eccentricity": 0.00070494,
      "inclination_deg": 98.2202,
      "raan_deg": 228.5592,
      "arg_perigee_deg": 289.115,
      "mean_anomaly_deg": 70.9286,
      "mean_motion_rev_day": 14.58678272
    },
    {
      "epoch": "2026-03-29T02:58:26.802048Z",
      "apogee_km": 702.4303472448019,
      "perigee_km": 692.4594372422525,
      "latitude_deg": -6.363799182300188e-05,
      "longitude_deg": -2.3832893615644966,
      "height_km": 698.864292410758,
      "semi_major_axis_km": 7075.581892243527,
      "eccentricity": 0.0007046,
      "inclination_deg": 98.2202,
      "raan_deg": 228.7629,
      "arg_perigee_deg": 288.3521,
      "mean_anomaly_deg": 71.6911,
      "mean_motion_rev_day": 14.5867829
    },
    {
      "epoch": "2026-03-29T22:43:46.930944Z",
      "apogee_km": 702.4223429132426,
      "perigee_km": 692.4655853804952,
      "latitude_deg": -4.44019407958861e-05,
      "longitude_deg": 61.285904585150654,
      "height_km": 699.1170563576947,
      "semi_major_axis_km": 7075.580964146869,
      "eccentricity": 0.0007036,
      "inclination_deg": 98.2203,
      "raan_deg": 229.5773,
      "arg_perigee_deg": 285.3292,
      "mean_anomaly_deg": 74.7129,
      "mean_motion_rev_day": 14.58678577
    },
    {
      "epoch": "2026-03-29T22:43:46.931808Z",
      "apogee_km": 702.4224136690518,
      "perigee_km": 692.465514624686,
      "latitude_deg": -4.330073931001454e-05,
      "longitude_deg": 61.285900817067784,
      "height_km": 699.1170376483124,
      "semi_major_axis_km": 7075.580964146869,
      "eccentricity": 0.00070361,
      "inclination_deg": 98.2203,
      "raan_deg": 229.5773,
      "arg_perigee_deg": 285.3292,
      "mean_anomaly_deg": 74.7129,
      "mean_motion_rev_day": 14.58678577
    },
    {
      "epoch": "2026-03-30T15:11:33.706464Z",
      "apogee_km": 702.4145211153791,
      "perigee_km": 692.472340029165,
      "latitude_deg": -2.9119884345810506e-06,
      "longitude_deg": 174.34369027592373,
      "height_km": 699.3300844852718,
      "semi_major_axis_km": 7075.580430572271,
      "eccentricity": 0.00070257,
      "inclination_deg": 98.2205,
      "raan_deg": 230.2561,
      "arg_perigee_deg": 282.8151,
      "mean_anomaly_deg": 77.2263,
      "mean_motion_rev_day": 14.58678742
    },
    {
      "epoch": "2026-03-30T21:46:40.409760Z",
      "apogee_km": 702.4107910856601,
      "perigee_km": 692.4752616126607,
      "latitude_deg": -5.5532342807804377e-05,
      "longitude_deg": 75.56682339057213,
      "height_km": 699.4156121324228,
      "semi_major_axis_km": 7075.58002634916,
      "eccentricity": 0.0007021,
      "inclination_deg": 98.2206,
      "raan_deg": 230.5276,
      "arg_perigee_deg": 281.8097,
      "mean_anomaly_deg": 78.2314,
      "mean_motion_rev_day": 14.58678867
    }
  ]
}